# Last updated: 1582927619.788401
GRACE-FO 2              
1 43477U 18047B   20058.79523322  .00000198  00000-0  68534-5 0  9992
2 43477  88.9985 152.7328 0015854 336.3417  23.7099 15.23981600 98363
IRIDIUM 161             
1 43478U 18047C   20058.73180909  .00000102  00000-0  24256-4 0  9994
2 43478  86.4527 330.2818 0002280  77.5764 282.5692 14.43281342 93180
IRIDIUM 152             
1 43479U 18047D   20058.85703384  .00000078  00000-0  20846-4 0  9999
2 43479  86.3999 330.1042 0002222  93.3112 266.8338 14.34216019 92641
IRIDIUM 147             
1 43480U 18047E   20058.72381836  .00000083  00000-0  22621-4 0  9990
2 43480  86.4001 330.1254 0002339  81.4271 278.7190 14.34215937 92619
IRIDIUM 110             
1 43481U 18047F   20058.73014331  .00000086  00000-0  23540-4 0  9999
2 43481  86.4004 330.1531 0001805  79.6362 280.5037 14.34214653 92602
IRIDIUM 162             
1 43482U 18047G   20058.72544248  .00000101  00000-0  24042-4 0  9990
2 43482  86.4523 330.2070 0001873  76.2547 283.8862 14.43276276 93175
GAOFEN 6                
1 43484U 18048A   20059.44297668  .00000009  00000-0  86146-5 0  9995
2 43484  97.9951 140.4399 0010465  37.7802 322.4137 14.76477949 93886
LUOJIA-1 01             
1 43485U 18048B   20059.48601230  .00000165  00000-0  30960-4 0  9999
2 43485  97.9967 140.6173 0012131  34.0834 326.1156 14.76650652 93890
SES-12                  
1 43488U 18049A   20059.50604832 -.00000271  00000-0  00000+0 0  9993
2 43488   0.0267  81.0034 0002325 208.7991 145.1408  1.00271629  6353
FENGYUN 2H              
1 43491U 18050A   20059.59790086 -.00000131  00000-0  00000+0 0  9990
2 43491   0.9174 277.1943 0001629 206.2872 328.9687  1.00271780  6445
COSMOS 2527 [GLONASS-M] 
1 43508U 18053A   20058.70466524  .00000017  00000-0  00000-0 0  9994
2 43508  64.8485 150.9788 0007101 228.2284  31.2234  2.13102544 13227
REMOVEDEBRIS            
1 43510U 98067NT  20059.44441689  .00006376  00000-0  80207-4 0  9992
2 43510  51.6354 146.8881 0003615  15.7043 344.4062 15.61093834 96299
XJS A                   
1 43518U 18054A   20059.32830729  .00001939  00000-0  70867-4 0  9993
2 43518  35.0344  26.7129 0009645 314.8205 195.4973 15.27855593 93589
XJS B                   
1 43519U 18054B   20059.32627036  .00002072  00000-0  75612-4 0  9991
2 43519  35.0334  26.5670 0007838 347.2330 162.9522 15.27879465 93582
PAKTES 1A               
1 43529U 18056A   20059.44018113  .00000094  00000-0  16719-4 0  9992
2 43529  97.9972 145.9943 0028091 122.3707 238.0219 14.87380478 89074
PRSS 1                  
1 43530U 18056B   20059.53624850  .00000080  00000-0  18697-4 0  9997
2 43530  98.0067 137.4038 0001444  94.6053 265.5331 14.76875700 88470
BEIDOU IGSO-7           
1 43539U 18057A   20059.50603494 -.00000120  00000-0  00000+0 0  9995
2 43539  55.0437 183.2518 0025823 198.5977  68.3086  1.00250384  6082
CUBERRT                 
1 43546U 98067NU  20059.43959033  .00008771  00000-0  76996-4 0  9998
2 43546  51.6350 124.3308 0004196  27.7872 332.3349 15.69734428 92948
TEMPEST-D               
1 43547U 98067NV  20058.84179212  .00003786  00000-0  50631-4 0  9995
2 43547  51.6371 149.6638 0005266   3.1315 356.9710 15.60827730 92233
RAINCUBE                
1 43548U 98067NW  20058.74621859  .00016665  00000-0  14729-3 0  9991
2 43548  51.6341 136.1804 0005250  19.5035 340.6162 15.68792998 92854
HALOSAT                 
1 43549U 98067NX  20059.47310682  .00012444  00000-0  11308-3 0  9993
2 43549  51.6360 132.8325 0004963  22.8459 337.2758 15.68404924 92520
RADIX                   
1 43550U 98067NY  20059.50137793  .00135665  17855-4  44277-3 0  9991
2 43550  51.6297 108.6872 0006436  35.9443 324.1995 15.90392141 93301
ENDUROSAT ONE           
1 43551U 98067NZ  20058.77623235  .00023706  00000-0  17720-3 0  9996
2 43551  51.6334 129.6253 0005475  28.9108 331.2193 15.72560736 92914
EQUISAT                 
1 43552U 98067PA  20059.48186783  .00016913  00000-0  14837-3 0  9996
2 43552  51.6361 131.4313 0005772  29.6285 330.5038 15.68959537 92913
RADSAT-G                
1 43553U 98067PB  20058.49812445  .00011796  00000-0  11859-3 0  9993
2 43553  51.6399 141.4679 0005917  22.6608 337.4648 15.65933195 92747
1998-067PC              
1 43554U 98067PC  20058.91398646  .00024910  00000-0  17817-3 0  9995
2 43554  51.6338 127.5373 0005592  29.8555 330.2762 15.73566037 92492
AEROCUBE 12A            
1 43556U 18046C   20058.89375098  .00000723  00000-0  37421-4 0  9999
2 43556  51.6415 276.6513 0007593 258.3007 101.7121 15.29436215 90455
AEROCUBE 12B            
1 43557U 18046D   20058.60913043  .00001265  00000-0  56469-4 0  9992
2 43557  51.6421 278.4928 0007746 257.4114 102.5999 15.29211982 90355
LEMUR-2-VU              
1 43558U 18046E   20058.87458701  .00001420  00000-0  59657-4 0  9992
2 43558  51.6416 274.3393 0006804 261.7424  98.2785 15.30473613 90477
LEMUR-2-ALEXANDER       
1 43559U 18046F   20059.30588386  .00001021  00000-0  46133-4 0  9997
2 43559  51.6416 271.9786 0006787 264.0559  95.9648 15.30605310 90329
LEMUR-2-YUASA           
1 43560U 18046G   20058.95399383  .00001169  00000-0  51399-4 0  9999
2 43560  51.6417 274.1116 0007035 277.2798  82.7383 15.30387703 90482
LEMUR-2-TOMHENDERSON    
1 43561U 18046H   20058.89239153  .00000603  00000-0  32500-4 0  9996
2 43561  51.6419 274.4512 0007037 276.0527  83.9652 15.30317483 90038
TELSTAR 19V             
1 43562U 18059A   20058.77991970 -.00000282  00000-0  00000-0 0  9990
2 43562   0.0104 153.9571 0000570 124.8591  96.0086  1.00271124  6070
GSAT0221 (GALILEO 25)   
1 43564U 18060A   20055.96030777 -.00000054  00000-0  00000-0 0  9998
2 43564  56.7373  44.1507 0006441 281.5579  78.3694  1.70476076  9888
GSAT0222 (GALILEO 26)   
1 43565U 18060B   20058.52649600 -.00000045  00000-0  00000+0 0  9994
2 43565  56.7424  44.0796 0006252 288.3091  71.6208  1.70476065  9974
GSAT0219 (GALILEO 23)   
1 43566U 18060C   20055.81377287 -.00000054  00000-0  00000-0 0  9994
2 43566  56.7408  44.1556 0005890 284.5554  75.3792  1.70475950  9905
GSAT0220 (GALILEO 24)   
1 43567U 18060D   20058.37997942 -.00000046  00000-0  00000-0 0  9996
2 43567  56.7427  44.0861 0005952 286.4791  73.4533  1.70476122  9935
IRIDIUM 160             
1 43569U 18061A   20059.16435749  .00000069  00000-0  17450-4 0  9994
2 43569  86.3958 298.3395 0002332  88.4369 271.7094 14.34216020 83560
IRIDIUM 166             
1 43570U 18061B   20058.42229393  .00000066  00000-0  16408-4 0  9999
2 43570  86.3949 298.6315 0002174  97.3021 262.8422 14.34219383 83487
IRIDIUM 158             
1 43571U 18061C   20058.11150398  .00000085  00000-0  23416-4 0  9992
2 43571  86.3958 298.7692 0002035  94.9940 265.1488 14.34217328 83414
IRIDIUM 165             
1 43572U 18061D   20059.39271802  .00000073  00000-0  19135-4 0  9998
2 43572  86.3956 298.2378 0002006  95.0490 265.0935 14.34217802 83614
IRIDIUM 155             
1 43573U 18061E   20058.93602876  .00000068  00000-0  17320-4 0  9995
2 43573  86.3944 298.4070 0001779  70.0043 290.1344 14.34216352 83528
IRIDIUM 154             
1 43574U 18061F   20058.91701737  .00000071  00000-0  18222-4 0  9996
2 43574  86.3958 298.4399 0002344  88.8513 271.2951 14.34217069 83560
IRIDIUM 163             
1 43575U 18061G   20059.38636505  .00000068  00000-0  17235-4 0  9998
2 43575  86.3954 298.2289 0001983 105.4285 254.7130 14.34216855 83605
IRIDIUM 156             
1 43576U 18061H   20058.59354076  .00000065  00000-0  16127-4 0  9997
2 43576  86.3958 298.5650 0001689  90.5053 269.6336 14.34216410 83481
IRIDIUM 164             
1 43577U 18061J   20059.41173370  .00000075  00000-0  19592-4 0  9996
2 43577  86.3956 298.2282 0002273  91.0725 269.0731 14.34216072 83645
IRIDIUM 159             
1 43578U 18061K   20058.89162223  .00000076  00000-0  20151-4 0  9997
2 43578  86.3955 298.4307 0002223  88.7773 271.3677 14.34217531 83530
BEIDOU-3 M9             
1 43581U 18062A   20058.71885082  .00000033  00000-0  00000+0 0  9997
2 43581  54.6289 260.9402 0002127 303.7188  44.9489  1.86231685 10764
BEIDOU-3 M10            
1 43582U 18062B   20058.61463332  .00000032  00000-0  00000+0 0  9996
2 43582  54.6276 260.9309 0005813   8.7659   0.8665  1.86232102 10770
GAOFEN 11               
1 43585U 18063A   20059.47833390  .00000523  00000-0  24753-4 0  9991
2 43585  97.3919 140.8117 0015546 240.7589 214.3638 15.23594993 88499
TELKOM 4 (MERAH PUTIH)  
1 43587U 18064A   20058.92120302 -.00000347  00000-0  00000+0 0  9994
2 43587   0.0106 150.5700 0001178 205.8997 240.3330  1.00273887  5782
UITMSAT-1               
1 43589U 98067PD  20059.39290261  .00021011  00000-0  17335-3 0  9994
2 43589  51.6326 131.4509 0005213  35.1818 324.9523 15.70284267 88640
MAYA-1                  
1 43590U 98067PE  20059.44964509  .00020231  00000-0  16707-3 0  9990
2 43590  51.6331 131.0879 0005319  36.1713 323.9643 15.70288731 88581
BHUTAN-1                
1 43591U 98067PF  20058.92070971  .00018900  00000-0  15602-3 0  9997
2 43591  51.6341 133.6071 0005388  34.3374 325.7971 15.70350356 88503
SIRIUSSAT-1             
1 43595U 98067PG  20058.76606469  .00018958  00000-0  16734-3 0  9990
2 43595  51.6335 137.7859 0003499   3.0576 357.0442 15.68722486 87613
SIRIUSSAT-2             
1 43596U 98067PH  20058.75693703  .00017910  00000-0  15893-3 0  9999
2 43596  51.6343 138.5389 0003921   1.4351 358.6656 15.68637228 87605
TANUSHA-3               
1 43597U 98067PJ  20058.70048705  .00032276  00000-0  22857-3 0  9991
2 43597  51.6321 131.8510 0003874  17.4214  58.4557 15.73655893 87683
1998-067PK              
1 43598U 98067PK  20058.75798545  .00033238  00000-0  22909-3 0  9998
2 43598  51.6329 130.9369 0004194  14.9689 345.1433 15.74270495 87702
AEOLUS                  
1 43600U 18066A   20059.20950446  .00041927  00000-0  16731-3 0  9994
2 43600  96.7274  67.2558 0005636  95.9825  32.1703 15.86480928 87889
BEIDOU-3 M11            
1 43602U 18067A   20058.51420044  .00000032  00000-0  00000+0 0  9996
2 43602  54.6969 259.4809 0006726 357.6076 347.7880  1.86231551 10255
